{
    "links": {
        "self": "http://www.neowsapp.com/rest/v1/neo/3170205?api_key=iIulBulltgU6a56xZRHN4H3l9WmuAYTsLGpBGhQ2"
    },
    "id": "3170205",
    "neo_reference_id": "3170205",
    "name": "(2003 YR117)",
    "designation": "2003 YR117",
    "nasa_jpl_url": "http://ssd.jpl.nasa.gov/sbdb.cgi?sstr=3170205",
    "absolute_magnitude_h": 22.9,
    "estimated_diameter": {
        "kilometers": {
            "estimated_diameter_min": 0.0699125232,
            "estimated_diameter_max": 0.1563291544
        },
        "meters": {
            "estimated_diameter_min": 69.9125232246,
            "estimated_diameter_max": 156.3291544087
        },
        "miles": {
            "estimated_diameter_min": 0.0434416145,
            "estimated_diameter_max": 0.097138403
        },
        "feet": {
            "estimated_diameter_min": 229.3718026961,
            "estimated_diameter_max": 512.8909429502
        }
    },
    "is_potentially_hazardous_asteroid": false,
    "close_approach_data": [
        {
            "close_approach_date": "2003-12-23",
            "close_approach_date_full": "2003-Dec-23 15:26",
            "epoch_date_close_approach": 1072193160000,
            "relative_velocity": {
                "kilometers_per_second": "13.4425837105",
                "kilometers_per_hour": "48393.3013577294",
                "miles_per_hour": "30069.7155019736"
            },
            "miss_distance": {
                "astronomical": "0.0259825276",
                "lunar": "10.1072032364",
                "kilometers": "3886930.786176212",
                "miles": "2415226.7949752456"
            },
            "orbiting_body": "Earth"
        }
    ],
    "orbital_data": {
        "orbit_id": "12",
        "orbit_determination_date": "2017-04-06 09:13:21",
        "first_observation_date": "2003-12-28",
        "last_observation_date": "2004-01-12",
        "data_arc_in_days": 15,
        "observations_used": 47,
        "orbit_uncertainty": "8",
        "minimum_orbit_intersection": ".0228092",
        "jupiter_tisserand_invariant": "3.782",
        "epoch_osculation": "2453005.5",
        "eccentricity": ".5037955589600497",
        "semi_major_axis": "1.861136709982199",
        "inclination": "17.33689693399243",
        "ascending_node_longitude": "95.03578331471563",
        "orbital_period": "927.3973274870881",
        "perihelion_distance": ".9235043008756492",
        "perihelion_argument": "317.3926616173096",
        "aphelion_distance": "2.798769119088749",
        "perihelion_time": "2452966.553762659833",
        "mean_anomaly": "15.11827242423806",
        "mean_motion": ".3881831328708591",
        "equinox": "J2000",
        "orbit_class": {
            "orbit_class_type": "APO",
            "orbit_class_description": "Near-Earth asteroid orbits which cross the Earth’s orbit similar to that of 1862 Apollo",
            "orbit_class_range": "a (semi-major axis) > 1.0 AU; q (perihelion) < 1.017 AU"
        }
    },
    "is_sentry_object": false
}